[{"OBJECT_NAME":"GOES 14","OBJECT_ID":"2009-033A","EPOCH":"2026-04-26T11:52:38.687808","MEAN_MOTION":1.0011657,"ECCENTRICITY":0.0001739,"INCLINATION":1.5586,"RA_OF_ASC_NODE":83.6308,"ARG_OF_PERICENTER":313.0723,"MEAN_ANOMALY":166.7089,"EPHEMERIS_TYPE":0,"CLASSIFICATION_TYPE":"U","NORAD_CAT_ID":35491,"ELEMENT_SET_NO":999,"REV_AT_EPOCH":607,"BSTAR":0,"MEAN_MOTION_DOT":-5.8e-7,"MEAN_MOTION_DDOT":0},{"OBJECT_NAME":"EWS-G2 (GOES 15)","OBJECT_ID":"2010-008A","EPOCH":"2026-04-26T12:09:25.621920","MEAN_MOTION":1.00272457,"ECCENTRICITY":0.0003975,"INCLINATION":1.1417,"RA_OF_ASC_NODE":83.7896,"ARG_OF_PERICENTER":23.7725,"MEAN_ANOMALY":352.5592,"EPHEMERIS_TYPE":0,"CLASSIFICATION_TYPE":"U","NORAD_CAT_ID":36411,"ELEMENT_SET_NO":999,"REV_AT_EPOCH":5912,"BSTAR":0,"MEAN_MOTION_DOT":1.1e-7,"MEAN_MOTION_DDOT":0},{"OBJECT_NAME":"GOES 16","OBJECT_ID":"2016-071A","EPOCH":"2026-04-26T12:40:49.243008","MEAN_MOTION":1.00271169,"ECCENTRICITY":0.0001506,"INCLINATION":0.212,"RA_OF_ASC_NODE":85.2831,"ARG_OF_PERICENTER":249.7867,"MEAN_ANOMALY":324.9509,"EPHEMERIS_TYPE":0,"CLASSIFICATION_TYPE":"U","NORAD_CAT_ID":41866,"ELEMENT_SET_NO":999,"REV_AT_EPOCH":3458,"BSTAR":0,"MEAN_MOTION_DOT":-1.03e-6,"MEAN_MOTION_DDOT":0},{"OBJECT_NAME":"GOES 17","OBJECT_ID":"2018-022A","EPOCH":"2026-04-26T11:25:52.300128","MEAN_MOTION":1.00272021,"ECCENTRICITY":6.56e-5,"INCLINATION":0.8069,"RA_OF_ASC_NODE":86.4035,"ARG_OF_PERICENTER":273.4258,"MEAN_ANOMALY":296.6261,"EPHEMERIS_TYPE":0,"CLASSIFICATION_TYPE":"U","NORAD_CAT_ID":43226,"ELEMENT_SET_NO":999,"REV_AT_EPOCH":2990,"BSTAR":0,"MEAN_MOTION_DOT":-1.94e-6,"MEAN_MOTION_DDOT":0},{"OBJECT_NAME":"GOES 18","OBJECT_ID":"2022-021A","EPOCH":"2026-04-26T08:58:14.704320","MEAN_MOTION":1.00272543,"ECCENTRICITY":4.57e-5,"INCLINATION":0.0261,"RA_OF_ASC_NODE":86.4448,"ARG_OF_PERICENTER":2.5991,"MEAN_ANOMALY":122.8889,"EPHEMERIS_TYPE":0,"CLASSIFICATION_TYPE":"U","NORAD_CAT_ID":51850,"ELEMENT_SET_NO":999,"REV_AT_EPOCH":607,"BSTAR":0,"MEAN_MOTION_DOT":8.4e-7,"MEAN_MOTION_DDOT":0},{"OBJECT_NAME":"GOES 19","OBJECT_ID":"2024-119A","EPOCH":"2026-04-26T11:29:51.915840","MEAN_MOTION":1.0027278,"ECCENTRICITY":4.17e-5,"INCLINATION":0.0294,"RA_OF_ASC_NODE":93.6133,"ARG_OF_PERICENTER":353.372,"MEAN_ANOMALY":224.76,"EPHEMERIS_TYPE":0,"CLASSIFICATION_TYPE":"U","NORAD_CAT_ID":60133,"ELEMENT_SET_NO":999,"REV_AT_EPOCH":644,"BSTAR":0,"MEAN_MOTION_DOT":-2.61e-6,"MEAN_MOTION_DDOT":0}]
