GOES 14                 
1 35491U 09033A   26116.49489222 -.00000058  00000+0  00000+0 0  9995
2 35491   1.5586  83.6308 0001739 313.0723 166.7089  1.00116570  6077
EWS-G2 (GOES 15)        
1 36411U 10008A   26116.50654655  .00000011  00000+0  00000+0 0  9996
2 36411   1.1417  83.7896 0003975  23.7725 352.5592  1.00272457 59128
GOES 16                 
1 41866U 16071A   26116.52834772 -.00000103  00000+0  00000+0 0  9997
2 41866   0.2120  85.2831 0001506 249.7867 324.9509  1.00271169 34583
GOES 17                 
1 43226U 18022A   26116.47629977 -.00000194  00000+0  00000+0 0  9990
2 43226   0.8069  86.4035 0000656 273.4258 296.6261  1.00272021 29903
GOES 18                 
1 51850U 22021A   26116.37378130  .00000084  00000+0  00000+0 0  9994
2 51850   0.0261  86.4448 0000457   2.5991 122.8889  1.00272543  6071
GOES 19                 
1 60133U 24119A   26116.47907310 -.00000261  00000+0  00000+0 0  9995
2 60133   0.0294  93.6133 0000417 353.3720 224.7600  1.00272780  6442
